STARLINK-1903
1 26764C 20074AB  21325.12915905  .00005619  00000-0  37662-3 0  3256
2 26764  53.0510 182.6453 0001813  76.2266 140.9460 15.06379548    17
